URSA MAIOR              
1 42776U 17036M   24128.32777819  .00202348  00000+0  14455-2 0  9993
2 42776  97.1044 161.2338 0000384 354.1006   6.0254 15.73166915382948
CICERO 6                
1 42793U 17036AE  24127.82898894  .00266361  00000+0  13989-2 0  9999
2 42793  97.0880 165.0333 0001027 163.8920 196.2381 15.80021848383257
CORVUS BC2              
1 42846U 17042X   24128.49697398  .00003407  00000+0  29852-3 0  9992
2 42846  97.3743 315.8792 0008059 187.4380 172.6724 14.97271872371353
CORVUS BC1              
1 42847U 17042Y   24127.79395233  .00005089  00000+0  44185-3 0  9992
2 42847  97.3733 315.6116 0008185 186.1990 173.9133 14.97416376371262
MIRATA                  
1 43015U 17073C   24128.56736685  .00024210  00000+0  11824-2 0  9990
2 43015  97.6008  13.8236 0176500  40.0773 321.3321 15.05533251350214
MAKERSAT 0              
1 43016U 17073D   24127.60161699  .00016550  00000+0  95637-3 0  9995
2 43016  97.5870   7.7627 0201518  62.6766 299.4814 14.96753897349698
CORVUS BC3              
1 43118U 18004H   24127.74866785  .00214225  00000+0  12389-2 0  9997
2 43118  97.2864 212.4096 0001571 313.5381  46.5754 15.78006396352362
GOMX-4B                 
1 43196U 18015E   24127.75998146  .00058405  00000+0  76934-3 0  9996
2 43196  97.6055 298.3643 0008486 113.6811 246.5336 15.58216731349069
GOMX-4A                 
1 43197U 18015F   24128.53880944  .00076230  00000+0  70986-3 0  9997
2 43197  97.5974 303.6865 0006218 103.5131 256.6822 15.67112310349496
CICERO 10               
1 43690U 18088A   24127.71397179  .00115401  00000+0  10190-2 0  9991
2 43690  85.0170 209.1083 0005294 119.2736 240.9061 15.68300408305686
PROXIMA I               
1 43694U 18088E   24128.19466061  .00632296  17288-3  13736-2 0  9990
2 43694  85.0019 201.5706 0005214 259.1411 100.9286 15.98319560306278
PROXIMA II              
1 43696U 18088G   24128.49028323  .00466225  86043-4  11885-2 0  9996
2 43696  85.0037 201.5618 0004425 258.2260 101.8525 15.95360693306307
SIRION PATHFINDER-2     
1 43759U 18099B   24127.87022218  .00005318  00000+0  40751-3 0  9997
2 43759  97.5322 185.1888 0014056  73.4677 286.8091 15.02172490296302
CORVUS BC4              
1 43767U 18099K   24128.15195362  .00006370  00000+0  49583-3 0  9990
2 43767  97.5198 182.7903 0010716 130.8718 229.3437 15.01532906296235
MOVE-II                 
1 43780U 18099Y   24128.13969574  .00020465  00000+0  11336-2 0  9992
2 43780  97.5242 191.5569 0008639 121.5761 238.6314 15.13812345296713
SPACEBEE-7              
1 43816U 18099BL  24127.41727506  .00015255  00000+0  93607-3 0  9992
2 43816  97.5513 191.6574 0011416  78.2016 282.0493 15.10157639296108
SPACEBEE-6              
1 43818U 18099BN  24127.73046737  .00032822  00000+0  15123-2 0  9994
2 43818  97.5445 196.6586 0009501  84.6025 275.6294 15.20170473296609
SHIELDS 1               
1 43850U 18104B   24127.91486326  .00015242  00000+0  42845-3 0  9998
2 43850  85.0202 311.1050 0009897 217.8396 142.2159 15.36330920299825
SONATE                  
1 44400U 19038Q   24127.95724050  .00021271  00000+0  68460-3 0  9990
2 44400  97.7121 120.2730 0014250 247.5668 112.4063 15.32153356267765
LUCKY-7                 
1 44406U 19038W   24128.23842169  .00042965  00000+0  10516-2 0  9991
2 44406  97.7029 124.1156 0011897 224.5387 135.4903 15.40581098268058
BEESAT 9                
1 44412U 19038AC  24128.45701060  .00361045  00000+0  20728-2 0  9995
2 44412  97.6769 132.7207 0010110 171.5451 188.5987 15.77722048268375
JAISAT-1                
1 44419U 19038F   24128.50300758  .00226920  00000+0  14680-2 0  9999
2 44419  97.6760 133.7239 0009510 169.9013 190.2444 15.75358121268751
DUCHIFAT-3              
1 44854U 19089C   24128.54693900  .00014719  00000+0  77827-3 0  9990
2 44854  36.9580 295.5057 0006491 105.5480 254.5984 15.14828228242033
M2 PATHFINDER           
1 45727U 20037E   24128.47892565  .00004115  00000+0  36471-3 0  9994
2 45727  97.7743 305.1437 0010415 258.3456 101.6597 14.96748335209854
NETSAT-4                
1 46504U 20068U   24128.44483218  .00012388  00000+0  68211-3 0  9998
2 46504  97.8035  84.5208 0011773 133.1804 227.0412 15.14122848198001
NETSAT-3                
1 46505U 20068V   24127.81973807  .00011728  00000+0  65551-3 0  9998
2 46505  97.8008  83.4378 0010651 142.1500 218.0482 15.13610922197904
NETSAT-1                
1 46506U 20068W   24128.48868434  .00008197  00000+0  47839-3 0  9997
2 46506  97.8034  83.6851 0009043 148.7565 211.4203 15.12178876197979
NETSAT-2                
1 46507U 20068X   24128.45953357  .00012326  00000+0  68079-3 0  9992
2 46507  97.8025  84.1817 0008440 150.4352 209.7357 15.14043123197958
WILDTRACKCUBE-SIMBA     
1 47941U 21022K   24128.51162671  .00012927  00000+0  60045-3 0  9996
2 47941  97.4660  25.6704 0013682 289.7224  70.2535 15.20052272172285
BEESAT-6                
1 47957U 21022AB  24127.69199230  .00137142  00000+0  20883-2 0  9994
2 47957  97.4463  33.9511 0004526 202.8028 157.3025 15.54013384172588
SMOG-1                  
1 47964U 21022AJ  24127.99034062  .00123335  00000+0  19424-2 0  9994
2 47964  97.4687  37.3481 0006252 194.6033 165.5041 15.53119873171813
BCCSAT-1                
1 48041U 21022AK  24127.69331801  .00063814  00000+0  14847-2 0  9998
2 48041  97.4675  33.6421 0005219 216.9049 143.1840 15.42070783171528
BEESAT-5                
1 48083U 21022AM  24127.99744656  .00208901  00000+0  22847-2 0  9990
2 48083  97.4209  35.3685 0005660 169.0768 191.0614 15.62610586171887
BEESAT-7                
1 48084U 21022AN  24127.96647026  .00069794  00000+0  12552-2 0  9998
2 48084  97.4637  34.4408 0005758 219.7078 140.3752 15.49589591171359
BEESAT-8                
1 48085U 21022AP  24127.46625263  .00030789  00000+0  10665-2 0  9998
2 48085  97.4793  29.1919 0009730 274.2899  85.7230 15.29748860171494
LEDSAT                  
1 49069U 21073D   24128.15178890  .00021124  00000+0  89098-3 0  9993
2 49069  97.4400 199.5991 0020781  71.5040 288.8452 15.23126622150207
SITRO-AIS 5 (KATYS)     
1 57176U 23091L   24128.48549561  .00007677  00000+0  50668-3 0  9994
2 57176  97.6166 181.0330 0016501 258.6430 101.2944 15.07615434 47367
SITRO-AIS 6 (CHIRKIN)   
1 57192U 23091AC  24128.47228682  .00007358  00000+0  48509-3 0  9996
2 57192  97.6164 181.0422 0016073 258.1894 101.7531 15.07676765 47369
SITRO-AIS 8 (ANOKHIN)   
1 57193U 23091AD  24128.51444319  .00007734  00000+0  50615-3 0  9998
2 57193  97.6153 181.1331 0016053 259.2095 100.7326 15.07932747 47378
SITRO-AIS 7 (FARTUSHNIY)
1 57194U 23091AE  24128.47615752  .00007532  00000+0  49704-3 0  9998
2 57194  97.6163 181.0313 0015988 258.8353 101.1077 15.07636812 47368
SITRO-AIS 10 (BURDAEV)  
1 57199U 23091AK  24128.46625853  .00008350  00000+0  52175-3 0  9990
2 57199  97.6177 181.8676 0011153 244.7786 115.2287 15.09662155 47418
SITRO-AIS 9 (SHCHUKIN)  
1 57201U 23091AM  24128.46421352  .00007826  00000+0  48946-3 0  9990
2 57201  97.6171 181.8497 0011118 244.6970 115.3107 15.09648286 47413
SITRO-AIS 12 (SMIRENNIY)
1 57204U 23091AQ  24128.49799651  .00009430  00000+0  58583-3 0  9997
2 57204  97.6177 181.9978 0011402 239.0575 120.9534 15.09832680 47422
SITRO-AIS 11 (SHEFFER)  
1 57208U 23091AU  24128.48587455  .00008901  00000+0  55210-3 0  9993
2 57208  97.6178 182.0040 0011144 238.9689 121.0447 15.09913427 47420
SITRO-AIS 29            
1 59052U 24039B   24128.52779419  .00021330  00000+0  83645-3 0  9997
2 59052  97.3900  90.9281 0018711   9.9304 350.2300 15.25610847 10398
SITRO-AIS 30            
1 59053U 24039C   24128.52703982  .00020885  00000+0  81857-3 0  9997
2 59053  97.3899  90.9266 0018859  10.5818 349.5813 15.25629473 10384
SITRO-AIS 31            
1 59054U 24039D   24128.52323386  .00022261  00000+0  86963-3 0  9997
2 59054  97.3899  90.9318 0018708  10.5232 349.6394 15.25728730 10400
SITRO-AIS 33            
1 59055U 24039E   24128.51864554  .00021785  00000+0  84831-3 0  9996
2 59055  97.3903  90.9401 0018494  11.4798 348.6858 15.25843538 10395
SITRO-AIS 35            
1 59056U 24039F   24128.51626924  .00022117  00000+0  86008-3 0  9992
2 59056  97.3901  90.9424 0018324  11.6437 348.5221 15.25888849 10390
SITRO-AIS 32            
1 59057U 24039G   24128.51907483  .00021164  00000+0  82527-3 0  9998
2 59057  97.3902  90.9390 0018287  11.7688 348.3974 15.25807545 10398
SITRO-AIS 34            
1 59058U 24039H   24128.51751877  .00021871  00000+0  85173-3 0  9998
2 59058  97.3903  90.9424 0018460  11.6062 348.5598 15.25841575 10391
SITRO-AIS 36            
1 59059U 24039J   24128.51343258  .00022447  00000+0  87151-3 0  9997
2 59059  97.3901  90.9465 0018059  11.9383 348.2279 15.25943994 10399
SITRO-AIS 49            
1 59060U 24039K   24128.51275623  .00021806  00000+0  84711-3 0  9996
2 59060  97.3902  90.9471 0018064  11.6438 348.5215 15.25931386 10398
SITRO-AIS 50            
1 59061U 24039L   24128.50889194  .00021645  00000+0  83717-3 0  9996
2 59061  97.3901  90.9521 0018007  12.0887 348.0780 15.26079400 10397
SITRO-AIS 51            
1 59062U 24039M   24128.31120778  .00028988  00000+0  11191-2 0  9995
2 59062  97.3900  90.7594 0017923  12.3795 347.7880 15.26082781 10362
SITRO-AIS 52            
1 59063U 24039N   24128.50442752  .00021195  00000+0  81767-3 0  9996
2 59063  97.3903  90.9583 0017741  11.8036 348.3615 15.26173778 10399
SITRO-AIS 25            
1 59066U 24039R   24128.50975299  .00005531  00000+0  53393-3 0  9996
2 59066  95.4022  69.8273 0175614 122.3984 239.4364 14.82087476 10085
SITRO-AIS 26            
1 59067U 24039S   24128.50903579  .00005359  00000+0  51764-3 0  9997
2 59067  95.4021  69.8275 0175443 122.4362 239.3962 14.82092497 10080
SITRO-AIS 27            
1 59068U 24039T   24128.50380419  .00005223  00000+0  50327-3 0  9994
2 59068  95.4023  69.8343 0175191 122.3096 239.5227 14.82218813 10080
